STARLINK-1064
1 24769C 19074BJ  21325.13472024  .00012348  00000-0  15933-3 0  3252
2 24769  53.0576  43.3062 0003159  52.0579 188.9221 15.58340400    14
